0 ZHEDA PIXING 1B
1 37166U 10047B   13282.55681982  .00000621  00000-0  92120-4 0  1073
2 37166 097.8514 331.0553 0024340 305.2802 054.6143 14.78293945164402
0 ZHEDA PIXING 1B
1 37166U 10047B   13282.69219291  .00000617  00000-0  91693-4 0  1088
2 37166 097.8515 331.1874 0024352 304.8616 055.0301 14.78294080164425
0 ZHEDA PIXING 1B
1 37166U 10047B   13283.16599959  .00000599  00000-0  89125-4 0  1090
2 37166 097.8512 331.6495 0024381 303.4143 056.4750 14.78294618164495
0 ZHEDA PIXING 1B
1 37166U 10047B   13283.70749192  .00000614  00000-0  91184-4 0  1104
2 37166 097.8510 332.1771 0024375 301.6879 058.1956 14.78295491164571
0 ZHEDA PIXING 1B
1 37166U 10047B   13284.11361131  .00000618  00000-0  91776-4 0  1115
2 37166 097.8507 332.5731 0024413 300.4377 059.4437 14.78296151164639
0 ZHEDA PIXING 1B
1 37166U 10047B   13284.51973005  .00000643  00000-0  95260-4 0  1129
2 37166 097.8508 332.9696 0024412 299.1345 060.7441 14.78297015164698
0 ZHEDA PIXING 1B
1 37166U 10047B   13285.53502564  .00000717  00000-0  10533-3 0  1154
2 37166 097.8509 333.9598 0024337 295.5992 064.2718 14.78299300164847
0 ZHEDA PIXING 1B
1 37166U 10047B   13285.73808467  .00000735  00000-0  10782-3 0  1164
2 37166 097.8508 334.1576 0024342 294.9687 064.8996 14.78299726164874
0 ZHEDA PIXING 1B
1 37166U 10047B   13286.14420261  .00000762  00000-0  11147-3 0  1179
2 37166 097.8505 334.5537 0024329 293.5035 066.3623 14.78300628164934
0 ZHEDA PIXING 1B
1 37166U 10047B   13286.55032079  .00000815  00000-0  11870-3 0  1183
2 37166 097.8508 334.9500 0024216 292.2023 067.6657 14.78301810164990
0 ZHEDA PIXING 1B
1 37166U 10047B   13286.68569272  .00000827  00000-0  12032-3 0  1192
2 37166 097.8510 335.0824 0024255 291.9519 067.9108 14.78302098165010
0 ZHEDA PIXING 1B
1 37166U 10047B   13287.22718322  .00000817  00000-0  11900-3 0  1209
2 37166 097.8508 335.6103 0024239 290.0406 069.8189 14.78302899165097
0 ZHEDA PIXING 1B
1 37166U 10047B   13287.29486964  .00000809  00000-0  11796-3 0  1215
2 37166 097.8508 335.6764 0024222 289.8233 070.0362 14.78302937165108
0 ZHEDA PIXING 1B
1 37166U 10047B   13287.70098711  .00000841  00000-0  12235-3 0  1226
2 37166 097.8509 336.0727 0024176 288.6080 071.2501 14.78303902165165
0 ZHEDA PIXING 1B
1 37166U 10047B   13288.10710437  .00000865  00000-0  12553-3 0  1237
2 37166 097.8504 336.4685 0024194 287.2469 072.6102 14.78304852165227
0 ZHEDA PIXING 1B
1 37166U 10047B   13288.37784904  .00000865  00000-0  12556-3 0  1240
2 37166 097.8504 336.7324 0024196 286.3862 073.4691 14.78305346165264
0 ZHEDA PIXING 1B
1 37166U 10047B   13288.71627976  .00000876  00000-0  12711-3 0  1259
2 37166 097.8506 337.0627 0024129 285.2540 074.6005 14.78306067165312
0 ZHEDA PIXING 1B
1 37166U 10047B   13289.12239633  .00000901  00000-0  13047-3 0  1267
2 37166 097.8502 337.4586 0024072 283.7178 076.1372 14.78307113165376
0 ZHEDA PIXING 1B
1 37166U 10047B   13289.25776818  .00000902  00000-0  13069-3 0  1278
2 37166 097.8501 337.5904 0024079 283.2886 076.5639 14.78307387165393
0 ZHEDA PIXING 1B
1 37166U 10047B   13289.59619860  .00000900  00000-0  13041-3 0  1287
2 37166 097.8502 337.9205 0024079 282.2201 077.6312 14.78308007165448
0 ZHEDA PIXING 1B
1 37166U 10047B   13290.00231517  .00000877  00000-0  12716-3 0  1296
2 37166 097.8505 338.3168 0024097 280.7976 079.0528 14.78308571165504
0 ZHEDA PIXING 1B
1 37166U 10047B   13290.20537321  .00000865  00000-0  12551-3 0  1306
2 37166 097.8501 338.5146 0024084 280.0952 079.7539 14.78308865165539
0 ZHEDA PIXING 1B
1 37166U 10047B   13290.74686125  .00000887  00000-0  12861-3 0  1311
2 37166 097.8502 339.0425 0024043 278.2759 081.5741 14.78310123165610
0 ZHEDA PIXING 1B
1 37166U 10047B   13291.15297716  .00000882  00000-0  12788-3 0  1325
2 37166 097.8507 339.4387 0024053 276.9915 082.8576 14.78310814165679
0 ZHEDA PIXING 1B
1 37166U 10047B   13291.35603465  .00000889  00000-0  12885-3 0  1335
2 37166 097.8506 339.6366 0024015 276.3496 083.4984 14.78311286165701
0 ZHEDA PIXING 1B
1 37166U 10047B   13291.76215005  .00000913  00000-0  13211-3 0  1342
2 37166 097.8511 340.0332 0023960 274.9377 084.9112 14.78312279165764
0 ZHEDA PIXING 1B
1 37166U 10047B   13292.16826483  .00000965  00000-0  13928-3 0  1358
2 37166 097.8514 340.4296 0024025 273.3129 086.5386 14.78313653165826
0 ZHEDA PIXING 1B
1 37166U 10047B   13292.50669282  .00000989  00000-0  14250-3 0  1364
2 37166 097.8516 340.7604 0023969 272.1933 087.6537 14.78314549165870
0 ZHEDA PIXING 1B
1 37166U 10047B   13292.84512118  .00001026  00000-0  14762-3 0  1378
2 37166 097.8514 341.0903 0023911 271.0283 088.8191 14.78315657165923
0 ZHEDA PIXING 1B
1 37166U 10047B   13293.18354934  .00001066  00000-0  15308-3 0  1388
2 37166 097.8515 341.4209 0023931 269.7891 090.0580 14.78316744165978
0 ZHEDA PIXING 1B
1 37166U 10047B   13293.38660640  .00001067  00000-0  15320-3 0  1390
2 37166 097.8515 341.6188 0023929 269.1353 090.7117 14.78317208166004
0 ZHEDA PIXING 1B
1 37166U 10047B   13293.79272041  .00001077  00000-0  15454-3 0  1400
2 37166 097.8513 342.0147 0023900 267.8832 091.9632 14.78318146166061
0 ZHEDA PIXING 1B
1 37166U 10047B   13294.19883444  .00001084  00000-0  15553-3 0  1419
2 37166 097.8514 342.4108 0023889 266.3628 093.4860 14.78319115166120
0 ZHEDA PIXING 1B
1 37166U 10047B   13294.26651988  .00001087  00000-0  15601-3 0  1421
2 37166 097.8514 342.4767 0023887 266.1750 093.6732 14.78319309166139
0 ZHEDA PIXING 1B
1 37166U 10047B   13294.80800440  .00001064  00000-0  15282-3 0  1431
2 37166 097.8513 343.0047 0023881 264.2255 095.6216 14.78320299166217
0 ZHEDA PIXING 1B
1 37166U 10047B   13295.14643249  .00001062  00000-0  15259-3 0  1444
2 37166 097.8512 343.3345 0023865 263.0720 096.7776 14.78321048166267
0 ZHEDA PIXING 1B
1 37166U 10047B   13295.55254569  .00001051  00000-0  15095-3 0  1459
2 37166 097.8511 343.7302 0023853 261.6695 098.1809 14.78321837166321
0 ZHEDA PIXING 1B
1 37166U 10047B   13295.68791673  .00001046  00000-0  15031-3 0  1460
2 37166 097.8509 343.8618 0023836 261.2237 098.6264 14.78322064166343
0 ZHEDA PIXING 1B
1 37166U 10047B   13296.16171501  .00001052  00000-0  15118-3 0  1470
2 37166 097.8509 344.3244 0023852 259.5989 100.2537 14.78323198166416
